{
  "type": "FeatureCollection",
  "features": [
    {
      "type": "Feature",
      "properties": {
        "norad_id": 66877,
        "name": "ZQ-3 R/B",
        "group": "last-30-days",
        "lat": 46.79472447406771,
        "lon": 48.98015889509717,
        "alt_km": 1065.6789336404709,
        "timestamp": "2025-12-26T04:40:04.512316+00:00",
        "meta_object_name": "ZQ-3 R/B",
        "meta_object_id": "2025-282A",
        "meta_epoch": "2025-12-25T05:45:52.511040",
        "meta_mean_motion": 14.85076412,
        "meta_eccentricity": 0.0673336,
        "meta_inclination": 56.9492,
        "meta_ra_of_asc_node": 8.893,
        "meta_arg_of_pericenter": 242.0471,
        "meta_mean_anomaly": 111.0851,
        "meta_ephemeris_type": 0,
        "meta_classification_type": "U",
        "meta_norad_cat_id": 66877,
        "meta_element_set_no": 999,
        "meta_rev_at_epoch": 323,
        "meta_bstar": 0.00016487,
        "meta_mean_motion_dot": 0.00979538,
        "meta_mean_motion_ddot": 7.936e-06,
        "tle_line1": "1 66877U 25282A   25359.24019110  .00979538  79360-5  16487-3 0  9995",
        "tle_line2": "2 66877  56.9492   8.8930 0673336 242.0471 111.0851 14.85076412  3230"
      },
      "geometry": {
        "type": "Point",
        "coordinates": [
          48.98015889509717,
          46.79472447406771
        ]
      }
    },
    {
      "type": "Feature",
      "properties": {
        "norad_id": 66878,
        "name": "STARLINK-35866",
        "group": "last-30-days",
        "lat": -17.68543633643186,
        "lon": -6.956028164463515,
        "alt_km": 397.55226078027135,
        "timestamp": "2025-12-26T04:40:04.512341+00:00",
        "meta_object_name": "STARLINK-35866",
        "meta_object_id": "2025-283A",
        "meta_epoch": "2025-12-25T22:00:01.999584",
        "meta_mean_motion": 15.5889515,
        "meta_eccentricity": 0.00016106,
        "meta_inclination": 53.1595,
        "meta_ra_of_asc_node": 8.2219,
        "meta_arg_of_pericenter": 91.0817,
        "meta_mean_anomaly": 127.3647,
        "meta_ephemeris_type": 0,
        "meta_classification_type": "U",
        "meta_norad_cat_id": 66878,
        "meta_element_set_no": 999,
        "meta_rev_at_epoch": 454,
        "meta_bstar": -0.027839851,
        "meta_mean_motion_dot": -0.01937342,
        "meta_mean_motion_ddot": 0,
        "tle_line1": "1 66878U 25283A   25359.91668981 -.01937342  00000+0 -27840-1 0  9999",
        "tle_line2": "2 66878  53.1595   8.2219 0001610  91.0817 127.3647 15.58895150  4541"
      },
      "geometry": {
        "type": "Point",
        "coordinates": [
          -6.956028164463515,
          -17.68543633643186
        ]
      }
    },
    {
      "type": "Feature",
      "properties": {
        "norad_id": 66879,
        "name": "STARLINK-35749",
        "group": "last-30-days",
        "lat": -14.69266414425822,
        "lon": -4.4708660225106405,
        "alt_km": 397.235261373361,
        "timestamp": "2025-12-26T04:40:04.512354+00:00",
        "meta_object_name": "STARLINK-35749",
        "meta_object_id": "2025-283B",
        "meta_epoch": "2025-12-25T22:00:01.999584",
        "meta_mean_motion": 15.58887394,
        "meta_eccentricity": 0.00015789,
        "meta_inclination": 53.1596,
        "meta_ra_of_asc_node": 8.2133,
        "meta_arg_of_pericenter": 93.558,
        "meta_mean_anomaly": 128.7274,
        "meta_ephemeris_type": 0,
        "meta_classification_type": "U",
        "meta_norad_cat_id": 66879,
        "meta_element_set_no": 999,
        "meta_rev_at_epoch": 454,
        "meta_bstar": -0.027691308,
        "meta_mean_motion_dot": -0.0192771,
        "meta_mean_motion_ddot": 0,
        "tle_line1": "1 66879U 25283B   25359.91668981 -.01927710  00000+0 -27691-1 0  9992",
        "tle_line2": "2 66879  53.1596   8.2133 0001578  93.5580 128.7274 15.58887394  4547"
      },
      "geometry": {
        "type": "Point",
        "coordinates": [
          -4.4708660225106405,
          -14.69266414425822
        ]
      }
    },
    {
      "type": "Feature",
      "properties": {
        "norad_id": 66880,
        "name": "STARLINK-35844",
        "group": "last-30-days",
        "lat": -16.1938020026116,
        "lon": -5.704096701728988,
        "alt_km": 397.3690625871177,
        "timestamp": "2025-12-26T04:40:04.512365+00:00",
        "meta_object_name": "STARLINK-35844",
        "meta_object_id": "2025-283C",
        "meta_epoch": "2025-12-25T22:00:01.999584",
        "meta_mean_motion": 15.58891137,
        "meta_eccentricity": 0.00016006,
        "meta_inclination": 53.1596,
        "meta_ra_of_asc_node": 8.2184,
        "meta_arg_of_pericenter": 90.8856,
        "meta_mean_anomaly": 129.478,
        "meta_ephemeris_type": 0,
        "meta_classification_type": "U",
        "meta_norad_cat_id": 66880,
        "meta_element_set_no": 999,
        "meta_rev_at_epoch": 454,
        "meta_bstar": -0.027703677,
        "meta_mean_motion_dot": -0.01928727,
        "meta_mean_motion_ddot": 0,
        "tle_line1": "1 66880U 25283C   25359.91668981 -.01928727  00000+0 -27704-1 0  9998",
        "tle_line2": "2 66880  53.1596   8.2184 0001600  90.8856 129.4780 15.58891137  4547"
      },
      "geometry": {
        "type": "Point",
        "coordinates": [
          -5.704096701728988,
          -16.1938020026116
        ]
      }
    },
    {
      "type": "Feature",
      "properties": {
        "norad_id": 66881,
        "name": "STARLINK-35860",
        "group": "last-30-days",
        "lat": -13.187747562949488,
        "lon": -3.255832317814648,
        "alt_km": 396.9912411792111,
        "timestamp": "2025-12-26T04:40:04.512375+00:00",
        "meta_object_name": "STARLINK-35860",
        "meta_object_id": "2025-283D",
        "meta_epoch": "2025-12-25T22:00:01.999584",
        "meta_mean_motion": 15.58895087,
        "meta_eccentricity": 0.00016149,
        "meta_inclination": 53.1594,
        "meta_ra_of_asc_node": 8.2092,
        "meta_arg_of_pericenter": 89.0399,
        "meta_mean_anomaly": 135.1587,
        "meta_ephemeris_type": 0,
        "meta_classification_type": "U",
        "meta_norad_cat_id": 66881,
        "meta_element_set_no": 999,
        "meta_rev_at_epoch": 454,
        "meta_bstar": -0.027906976,
        "meta_mean_motion_dot": -0.01941452,
        "meta_mean_motion_ddot": 0,
        "tle_line1": "1 66881U 25283D   25359.91668981 -.01941452  00000+0 -27907-1 0  9994",
        "tle_line2": "2 66881  53.1594   8.2092 0001614  89.0399 135.1587 15.58895087  4548"
      },
      "geometry": {
        "type": "Point",
        "coordinates": [
          -3.255832317814648,
          -13.187747562949488
        ]
      }
    },
    {
      "type": "Feature",
      "properties": {
        "norad_id": 66882,
        "name": "STARLINK-35912",
        "group": "last-30-days",
        "lat": -11.675960464921562,
        "lon": -2.0533763633188173,
        "alt_km": 396.80672213858907,
        "timestamp": "2025-12-26T04:40:04.512385+00:00",
        "meta_object_name": "STARLINK-35912",
        "meta_object_id": "2025-283E",
        "meta_epoch": "2025-12-25T22:00:01.999584",
        "meta_mean_motion": 15.58887155,
        "meta_eccentricity": 0.00016362,
        "meta_inclination": 53.1595,
        "meta_ra_of_asc_node": 8.2064,
        "meta_arg_of_pericenter": 89.6473,
        "meta_mean_anomaly": 136.4709,
        "meta_ephemeris_type": 0,
        "meta_classification_type": "U",
        "meta_norad_cat_id": 66882,
        "meta_element_set_no": 999,
        "meta_rev_at_epoch": 454,
        "meta_bstar": -0.027665931,
        "meta_mean_motion_dot": -0.01926178,
        "meta_mean_motion_ddot": 0,
        "tle_line1": "1 66882U 25283E   25359.91668981 -.01926178  00000+0 -27666-1 0  9995",
        "tle_line2": "2 66882  53.1595   8.2064 0001636  89.6473 136.4709 15.58887155  4549"
      },
      "geometry": {
        "type": "Point",
        "coordinates": [
          -2.0533763633188173,
          -11.675960464921562
        ]
      }
    },
    {
      "type": "Feature",
      "properties": {
        "norad_id": 66883,
        "name": "STARLINK-35947",
        "group": "last-30-days",
        "lat": -10.157183519750783,
        "lon": -0.8632928355874772,
        "alt_km": 396.6255763219133,
        "timestamp": "2025-12-26T04:40:04.512398+00:00",
        "meta_object_name": "STARLINK-35947",
        "meta_object_id": "2025-283F",
        "meta_epoch": "2025-12-25T22:00:01.999584",
        "meta_mean_motion": 15.58890741,
        "meta_eccentricity": 0.00015048,
        "meta_inclination": 53.1598,
        "meta_ra_of_asc_node": 8.2027,
        "meta_arg_of_pericenter": 92.1199,
        "meta_mean_anomaly": 135.914,
        "meta_ephemeris_type": 0,
        "meta_classification_type": "U",
        "meta_norad_cat_id": 66883,
        "meta_element_set_no": 999,
        "meta_rev_at_epoch": 459,
        "meta_bstar": -0.027746409,
        "meta_mean_motion_dot": -0.01931255,
        "meta_mean_motion_ddot": 0,
        "tle_line1": "1 66883U 25283F   25359.91668981 -.01931255  00000+0 -27746-1 0  9997",
        "tle_line2": "2 66883  53.1598   8.2027 0001504  92.1199 135.9140 15.58890741  4593"
      },
      "geometry": {
        "type": "Point",
        "coordinates": [
          -0.8632928355874772,
          -10.157183519750783
        ]
      }
    }
  ]
}